CCSDS_OMM_VERS = 2.0
CREATION_DATE  = 
ORIGINATOR     = 

OBJECT_NAME    = UNKNOWN
OBJECT_ID      = 
CENTER_NAME    = EARTH
REF_FRAME      = TEME
TIME_SYSTEM    = UTC
MEAN_ELEMENT_THEORY = SGP/SGP4

EPOCH          = 2026-01-22T10:19:19.552224
MEAN_MOTION    = 12.83394284
ECCENTRICITY   = .03803229
INCLINATION    = 63.2087
RA_OF_ASC_NODE = 276.7396
ARG_OF_PERICENTER = 22.4514
MEAN_ANOMALY   = 339.2637

EPHEMERIS_TYPE = 0
CLASSIFICATION_TYPE = U
NORAD_CAT_ID   = 270261
ELEMENT_SET_NO = 999
REV_AT_EPOCH   = 27546
BSTAR          = .20518562E-2
MEAN_MOTION_DOT = .59E-5
MEAN_MOTION_DDOT = 0

CCSDS_OMM_VERS = 2.0
CREATION_DATE  = 
ORIGINATOR     = 

OBJECT_NAME    = UNKNOWN
OBJECT_ID      = 
CENTER_NAME    = EARTH
REF_FRAME      = TEME
TIME_SYSTEM    = UTC
MEAN_ELEMENT_THEORY = SGP/SGP4

EPOCH          = 2026-02-03T15:51:43.051680
MEAN_MOTION    = 12.95596985
ECCENTRICITY   = .00313204
INCLINATION    = 90.2467
RA_OF_ASC_NODE = 6.2673
ARG_OF_PERICENTER = 158.5817
MEAN_ANOMALY   = 201.6621

EPHEMERIS_TYPE = 0
CLASSIFICATION_TYPE = U
NORAD_CAT_ID   = 270262
ELEMENT_SET_NO = 999
REV_AT_EPOCH   = 27898
BSTAR          = .12112546E-2
MEAN_MOTION_DOT = .351E-5
MEAN_MOTION_DDOT = 0

CCSDS_OMM_VERS = 2.0
CREATION_DATE  = 
ORIGINATOR     = 

OBJECT_NAME    = UNKNOWN
OBJECT_ID      = 
CENTER_NAME    = EARTH
REF_FRAME      = TEME
TIME_SYSTEM    = UTC
MEAN_ELEMENT_THEORY = SGP/SGP4

EPOCH          = 2026-01-23T10:49:25.453920
MEAN_MOTION    = 14.34936933
ECCENTRICITY   = .00330588
INCLINATION    = 86.4348
RA_OF_ASC_NODE = 101.9690
ARG_OF_PERICENTER = 202.1497
MEAN_ANOMALY   = 157.8273

EPHEMERIS_TYPE = 0
CLASSIFICATION_TYPE = U
NORAD_CAT_ID   = 270263
ELEMENT_SET_NO = 999
REV_AT_EPOCH   = 30883
BSTAR          = .4777215E-3
MEAN_MOTION_DOT = .1385E-4
MEAN_MOTION_DDOT = 0

CCSDS_OMM_VERS = 2.0
CREATION_DATE  = 
ORIGINATOR     = 

OBJECT_NAME    = UNKNOWN
OBJECT_ID      = 
CENTER_NAME    = EARTH
REF_FRAME      = TEME
TIME_SYSTEM    = UTC
MEAN_ELEMENT_THEORY = SGP/SGP4

EPOCH          = 2026-02-05T23:28:26.399712
MEAN_MOTION    = 13.15558154
ECCENTRICITY   = .00183914
INCLINATION    = 82.5444
RA_OF_ASC_NODE = 237.6749
ARG_OF_PERICENTER = 238.8737
MEAN_ANOMALY   = 121.0581

EPHEMERIS_TYPE = 0
CLASSIFICATION_TYPE = U
NORAD_CAT_ID   = 270264
ELEMENT_SET_NO = 999
REV_AT_EPOCH   = 28340
BSTAR          = .11823224E-2
MEAN_MOTION_DOT = .458E-5
MEAN_MOTION_DDOT = 0

CCSDS_OMM_VERS = 2.0
CREATION_DATE  = 
ORIGINATOR     = 

OBJECT_NAME    = UNKNOWN
OBJECT_ID      = 
CENTER_NAME    = EARTH
REF_FRAME      = TEME
TIME_SYSTEM    = UTC
MEAN_ELEMENT_THEORY = SGP/SGP4

EPOCH          = 2026-02-01T04:34:35.914944
MEAN_MOTION    = 12.72136197
ECCENTRICITY   = .00816568
INCLINATION    = 82.4616
RA_OF_ASC_NODE = 199.7086
ARG_OF_PERICENTER = 102.3095
MEAN_ANOMALY   = 258.7159

EPHEMERIS_TYPE = 0
CLASSIFICATION_TYPE = U
NORAD_CAT_ID   = 270265
ELEMENT_SET_NO = 999
REV_AT_EPOCH   = 27200
BSTAR          = .19808466E-1
MEAN_MOTION_DOT = .4112E-4
MEAN_MOTION_DDOT = 0

CCSDS_OMM_VERS = 2.0
CREATION_DATE  = 
ORIGINATOR     = 

OBJECT_NAME    = UNKNOWN
OBJECT_ID      = 
CENTER_NAME    = EARTH
REF_FRAME      = TEME
TIME_SYSTEM    = UTC
MEAN_ELEMENT_THEORY = SGP/SGP4

EPOCH          = 2026-02-05T06:27:23.093856
MEAN_MOTION    = 12.56735343
ECCENTRICITY   = .01529307
INCLINATION    = 82.4266
RA_OF_ASC_NODE = 228.1416
ARG_OF_PERICENTER = 223.1420
MEAN_ANOMALY   = 135.7602

EPHEMERIS_TYPE = 0
CLASSIFICATION_TYPE = U
NORAD_CAT_ID   = 270266
ELEMENT_SET_NO = 999
REV_AT_EPOCH   = 26910
BSTAR          = .15191577E-1
MEAN_MOTION_DOT = .2646E-4
MEAN_MOTION_DDOT = 0

CCSDS_OMM_VERS = 2.0
CREATION_DATE  = 
ORIGINATOR     = 

OBJECT_NAME    = UNKNOWN
OBJECT_ID      = 
CENTER_NAME    = EARTH
REF_FRAME      = TEME
TIME_SYSTEM    = UTC
MEAN_ELEMENT_THEORY = SGP/SGP4

EPOCH          = 2026-01-26T15:56:53.092032
MEAN_MOTION    = 12.96385653
ECCENTRICITY   = .00281227
INCLINATION    = 90.2394
RA_OF_ASC_NODE = 3.5242
ARG_OF_PERICENTER = 139.6934
MEAN_ANOMALY   = 220.6278

EPHEMERIS_TYPE = 0
CLASSIFICATION_TYPE = U
NORAD_CAT_ID   = 270267
ELEMENT_SET_NO = 999
REV_AT_EPOCH   = 27821
BSTAR          = .26381876E-4
MEAN_MOTION_DOT = .15E-6
MEAN_MOTION_DDOT = 0

CCSDS_OMM_VERS = 2.0
CREATION_DATE  = 
ORIGINATOR     = 

OBJECT_NAME    = UNKNOWN
OBJECT_ID      = 
CENTER_NAME    = EARTH
REF_FRAME      = TEME
TIME_SYSTEM    = UTC
MEAN_ELEMENT_THEORY = SGP/SGP4

EPOCH          = 2026-01-26T05:27:22.433472
MEAN_MOTION    = 12.98348414
ECCENTRICITY   = .00310272
INCLINATION    = 90.2423
RA_OF_ASC_NODE = 5.6246
ARG_OF_PERICENTER = 69.9660
MEAN_ANOMALY   = 290.4797

EPHEMERIS_TYPE = 0
CLASSIFICATION_TYPE = U
NORAD_CAT_ID   = 270268
ELEMENT_SET_NO = 999
REV_AT_EPOCH   = 27825
BSTAR          = .26177714E-2
MEAN_MOTION_DOT = .778E-5
MEAN_MOTION_DDOT = 0

CCSDS_OMM_VERS = 2.0
CREATION_DATE  = 
ORIGINATOR     = 

OBJECT_NAME    = UNKNOWN
OBJECT_ID      = 
CENTER_NAME    = EARTH
REF_FRAME      = TEME
TIME_SYSTEM    = UTC
MEAN_ELEMENT_THEORY = SGP/SGP4

EPOCH          = 2026-02-12T20:25:59.095488
MEAN_MOTION    = 13.30539778
ECCENTRICITY   = .00823662
INCLINATION    = 82.5851
RA_OF_ASC_NODE = 197.7498
ARG_OF_PERICENTER = 272.1273
MEAN_ANOMALY   = 87.0427

EPHEMERIS_TYPE = 0
CLASSIFICATION_TYPE = U
NORAD_CAT_ID   = 270269
ELEMENT_SET_NO = 999
REV_AT_EPOCH   = 28710
BSTAR          = .58400529E-3
MEAN_MOTION_DOT = .292E-5
MEAN_MOTION_DDOT = 0

CCSDS_OMM_VERS = 2.0
CREATION_DATE  = 
ORIGINATOR     = 

OBJECT_NAME    = UNKNOWN
OBJECT_ID      = 
CENTER_NAME    = EARTH
REF_FRAME      = TEME
TIME_SYSTEM    = UTC
MEAN_ELEMENT_THEORY = SGP/SGP4

EPOCH          = 2026-02-04T22:20:25.001952
MEAN_MOTION    = 12.58491450
ECCENTRICITY   = .01564145
INCLINATION    = 102.1505
RA_OF_ASC_NODE = 272.0088
ARG_OF_PERICENTER = 292.0464
MEAN_ANOMALY   = 66.4061

EPHEMERIS_TYPE = 0
CLASSIFICATION_TYPE = U
NORAD_CAT_ID   = 270271
ELEMENT_SET_NO = 999
REV_AT_EPOCH   = 27086
BSTAR          = .10093885E-2
MEAN_MOTION_DOT = .131E-5
MEAN_MOTION_DDOT = 0

CCSDS_OMM_VERS = 2.0
CREATION_DATE  = 
ORIGINATOR     = 

OBJECT_NAME    = UNKNOWN
OBJECT_ID      = 
CENTER_NAME    = EARTH
REF_FRAME      = TEME
TIME_SYSTEM    = UTC
MEAN_ELEMENT_THEORY = SGP/SGP4

EPOCH          = 2026-02-04T05:00:48.115008
MEAN_MOTION    = 12.98325739
ECCENTRICITY   = .00328884
INCLINATION    = 90.2486
RA_OF_ASC_NODE = 9.3245
ARG_OF_PERICENTER = 22.9937
MEAN_ANOMALY   = 337.2648

EPHEMERIS_TYPE = 0
CLASSIFICATION_TYPE = U
NORAD_CAT_ID   = 270274
ELEMENT_SET_NO = 999
REV_AT_EPOCH   = 27899
BSTAR          = .25694501E-2
MEAN_MOTION_DOT = .764E-5
MEAN_MOTION_DDOT = 0

CCSDS_OMM_VERS = 2.0
CREATION_DATE  = 
ORIGINATOR     = 

OBJECT_NAME    = UNKNOWN
OBJECT_ID      = 
CENTER_NAME    = EARTH
REF_FRAME      = TEME
TIME_SYSTEM    = UTC
MEAN_ELEMENT_THEORY = SGP/SGP4

EPOCH          = 2026-02-02T04:18:26.150976
MEAN_MOTION    = 13.92063053
ECCENTRICITY   = .03067273
INCLINATION    = 86.4365
RA_OF_ASC_NODE = 5.0241
ARG_OF_PERICENTER = 43.0781
MEAN_ANOMALY   = 319.3959

EPHEMERIS_TYPE = 0
CLASSIFICATION_TYPE = U
NORAD_CAT_ID   = 270275
ELEMENT_SET_NO = 999
REV_AT_EPOCH   = 2463
BSTAR          = .53877849E-2
MEAN_MOTION_DOT = .10142E-3
MEAN_MOTION_DDOT = 0

CCSDS_OMM_VERS = 2.0
CREATION_DATE  = 
ORIGINATOR     = 

OBJECT_NAME    = UNKNOWN
OBJECT_ID      = 
CENTER_NAME    = EARTH
REF_FRAME      = TEME
TIME_SYSTEM    = UTC
MEAN_ELEMENT_THEORY = SGP/SGP4

EPOCH          = 2026-01-16T05:08:46.426272
MEAN_MOTION    = 14.43867724
ECCENTRICITY   = .02561485
INCLINATION    = 34.1076
RA_OF_ASC_NODE = 356.5783
ARG_OF_PERICENTER = 264.0286
MEAN_ANOMALY   = 93.1143

EPHEMERIS_TYPE = 0
CLASSIFICATION_TYPE = U
NORAD_CAT_ID   = 270278
ELEMENT_SET_NO = 999
REV_AT_EPOCH   = 30052
BSTAR          = .23324111E-2
MEAN_MOTION_DOT = .12091E-3
MEAN_MOTION_DDOT = 0

CCSDS_OMM_VERS = 2.0
CREATION_DATE  = 
ORIGINATOR     = 

OBJECT_NAME    = UNKNOWN
OBJECT_ID      = 
CENTER_NAME    = EARTH
REF_FRAME      = TEME
TIME_SYSTEM    = UTC
MEAN_ELEMENT_THEORY = SGP/SGP4

EPOCH          = 2026-01-23T15:51:01.056096
MEAN_MOTION    = 12.93775314
ECCENTRICITY   = .00247336
INCLINATION    = 90.2282
RA_OF_ASC_NODE = 0.8264
ARG_OF_PERICENTER = 187.5286
MEAN_ANOMALY   = 172.5465

EPHEMERIS_TYPE = 0
CLASSIFICATION_TYPE = U
NORAD_CAT_ID   = 270279
ELEMENT_SET_NO = 999
REV_AT_EPOCH   = 27516
BSTAR          = .36260012E-3
MEAN_MOTION_DOT = .107E-5
MEAN_MOTION_DDOT = 0

CCSDS_OMM_VERS = 2.0
CREATION_DATE  = 
ORIGINATOR     = 

OBJECT_NAME    = UNKNOWN
OBJECT_ID      = 
CENTER_NAME    = EARTH
REF_FRAME      = TEME
TIME_SYSTEM    = UTC
MEAN_ELEMENT_THEORY = SGP/SGP4

EPOCH          = 2026-02-03T15:00:24.271488
MEAN_MOTION    = 12.96958775
ECCENTRICITY   = .0029375
INCLINATION    = 90.2410
RA_OF_ASC_NODE = 4.2572
ARG_OF_PERICENTER = 4.1530
MEAN_ANOMALY   = 355.9829

EPHEMERIS_TYPE = 0
CLASSIFICATION_TYPE = U
NORAD_CAT_ID   = 270280
ELEMENT_SET_NO = 999
REV_AT_EPOCH   = 27740
BSTAR          = -.85194117E-3
MEAN_MOTION_DOT = -.238E-5
MEAN_MOTION_DDOT = 0

CCSDS_OMM_VERS = 2.0
CREATION_DATE  = 
ORIGINATOR     = 

OBJECT_NAME    = UNKNOWN
OBJECT_ID      = 
CENTER_NAME    = EARTH
REF_FRAME      = TEME
TIME_SYSTEM    = UTC
MEAN_ELEMENT_THEORY = SGP/SGP4

EPOCH          = 2026-01-29T23:24:47.348064
MEAN_MOTION    = 12.32487648
ECCENTRICITY   = .00494625
INCLINATION    = 82.4888
RA_OF_ASC_NODE = 292.7354
ARG_OF_PERICENTER = 247.8200
MEAN_ANOMALY   = 111.7621

EPHEMERIS_TYPE = 0
CLASSIFICATION_TYPE = U
NORAD_CAT_ID   = 270281
ELEMENT_SET_NO = 999
REV_AT_EPOCH   = 26191
BSTAR          = .94335082E-2
MEAN_MOTION_DOT = .1156E-4
MEAN_MOTION_DDOT = 0

